     3.00           N                   E                   RINEX VERSION / TYPE
BRD_USR             ESA                 20190104 191830  UTCPGM / RUN BY / DATE
 GAL   4.4750E+01 -1.5625E-02 -2.1362E-03  0.0000E+00       IONOSPHERIC CORR
GAUT -9.3132257462E-10 0.000000000E+00 432000 2034 GSTB   0 TIME SYSTEM CORR
GPGA -3.2014213502E-09-1.332267630E-15 518400 2034 GSTB   0 TIME SYSTEM CORR
                                                            END OF HEADER
E14 2019 01 04 17 30 00 6.464799749665E-03-5.670131031366E-12 0.000000000000E+00
     5.700000000000E+01-2.306250000000E+02 3.899805299687E-09-2.229131205817E+00
    -7.724389433861E-06 1.663763651159E-01-6.159767508507E-06 5.289395893097E+03
     4.950000000000E+05 2.039596438408E-06-1.339703915223E+00 7.357448339462E-07
     8.825705540576E-01 3.973437500000E+02 1.451856225674E+00-6.101325573272E-09
     4.185888644778E-10 5.210000000000E+02 2.034000000000E+03 0.000000000000E+00
     3.120000000000E+00 4.550000000000E+02 3.306195139885E-08 3.702007234097E-08
     4.956850000000E+05 0.000000000000E+00 0.000000000000E+00 0.000000000000E+00
E15 2019 01 04 17 30 00 9.238692000508E-04-1.065814103640E-12 0.000000000000E+00
     5.700000000000E+01-2.117187500000E+02 2.570107055275E-09-1.995308357128E+00
    -9.749084711075E-06 3.801441052929E-04 4.790723323822E-06 5.440605192184E+03
     4.950000000000E+05 5.774199962616E-08-7.448760684495E-01 2.235174179077E-08
     9.852087533734E-01 2.488437500000E+02-1.699450171778E+00-5.535230564571E-09
    -2.560820954186E-10 5.210000000000E+02 2.034000000000E+03 0.000000000000E+00
     3.120000000000E+00 4.550000000000E+02 1.396983861923E-09 1.396983861923E-09
     4.956850000000E+05 0.000000000000E+00 0.000000000000E+00 0.000000000000E+00
E19 2019 01 04 17 30 00-9.374576620758E-06 2.273736754432E-13 0.000000000000E+00
     5.700000000000E+01 1.456250000000E+01 3.767299780300E-09 2.287623019881E+00
     5.885958671570E-07 1.410280819982E-04 4.049390554428E-06 5.440602561951E+03
     4.950000000000E+05 6.146728992462E-08 1.362343693095E+00 2.048909664154E-08
     9.579223790264E-01 2.517812500000E+02 2.208471211073E+00-5.822385382865E-09
     2.335811581642E-10 5.210000000000E+02 2.034000000000E+03 0.000000000000E+00
     3.120000000000E+00 0.000000000000E+00-8.847564458847E-09-9.080395102501E-09
     4.956850000000E+05 0.000000000000E+00 0.000000000000E+00 0.000000000000E+00
E21 2019 01 04 17 30 00-5.127835320309E-04-1.861621967691E-12 0.000000000000E+00
     5.700000000000E+01 1.707500000000E+02 2.443673217370E-09-2.807958451929E+00
     7.871538400650E-06 4.810374230146E-05 1.002661883831E-05 5.440635126114E+03
     4.950000000000E+05-1.676380634308E-08-2.827879098115E+00-2.980232238770E-08
     9.899166110060E-01 1.363750000000E+02-3.451944612035E-01-5.208788395516E-09
    -2.142946405177E-11 5.210000000000E+02 2.034000000000E+03 0.000000000000E+00
     3.120000000000E+00 0.000000000000E+00-2.561137080193E-09-3.259629011154E-09
     4.956850000000E+05 0.000000000000E+00 0.000000000000E+00 0.000000000000E+00
E25 2019 01 04 17 30 00 1.933719206136E-03-1.143973804574E-11 0.000000000000E+00
     5.700000000000E+01 2.073437500000E+02 2.374027459201E-09 1.356002777084E+00
     9.506940841675E-06 2.191908424720E-04 8.849427103996E-06 5.440638858795E+03
     4.950000000000E+05 3.166496753693E-08-2.827888759226E+00-5.587935447693E-09
     9.899223763661E-01 1.616562500000E+02-1.366022608759E+00-5.227717755428E-09
     9.643258823294E-12 5.210000000000E+02 2.034000000000E+03 0.000000000000E+00
     3.120000000000E+00 0.000000000000E+00-1.164153218269E-09-1.396983861923E-09
     4.956850000000E+05 0.000000000000E+00 0.000000000000E+00 0.000000000000E+00
E26 2019 01 04 17 30 00 5.057469767053E-03-4.332889602665E-11 0.000000000000E+00
     5.700000000000E+01-1.973437500000E+02 2.656896384685E-09 3.139956866870E+00
    -9.160488843918E-06 3.237335477024E-04 4.999339580536E-06 5.440612806320E+03
     4.950000000000E+05-4.284083843231E-08-7.359223427138E-01-2.793967723846E-08
     9.783683137445E-01 2.419375000000E+02-2.115413496949E+00-5.480228273505E-09
    -2.214377952016E-10 5.210000000000E+02 2.034000000000E+03 0.000000000000E+00
     3.120000000000E+00 0.000000000000E+00 1.396983861923E-09 1.396983861923E-09
     4.956850000000E+05 0.000000000000E+00 0.000000000000E+00 0.000000000000E+00
E27 2019 01 04 17 30 00 5.564194289036E-04-7.645439836779E-12 0.000000000000E+00
     5.700000000000E+01 1.846875000000E+02 2.441887428699E-09-1.439048622197E+00
     8.640810847282E-06 2.099791308865E-04 1.015327870846E-05 5.440637605667E+03
     4.950000000000E+05 2.793967723846E-08-2.827863392227E+00-2.980232238770E-08
     9.898888784680E-01 1.344375000000E+02-9.272799959967E-01-5.244504168935E-09
     1.428630936784E-11 5.210000000000E+02 2.034000000000E+03 0.000000000000E+00
     3.120000000000E+00 0.000000000000E+00-2.793967723846E-09-3.492459654808E-09
     4.956850000000E+05 0.000000000000E+00 0.000000000000E+00 0.000000000000E+00
E30 2019 01 04 17 30 00 5.215042736381E-03-3.049649421882E-11 0.000000000000E+00
     5.700000000000E+01 1.948437500000E+02 2.407243128482E-09-2.088263765002E+00
     9.072944521904E-06 2.956400858238E-04 1.038238406181E-05 5.440628002167E+03
     4.950000000000E+05 1.303851604462E-08-2.821855707011E+00 0.000000000000E+00
     9.879034162912E-01 1.299062500000E+02 4.872176789834E-01-5.240218276125E-09
     4.214461263514E-11 5.210000000000E+02 2.034000000000E+03 0.000000000000E+00
     3.120000000000E+00 0.000000000000E+00-3.026798367500E-09-3.725290298462E-09
     4.956850000000E+05 0.000000000000E+00 0.000000000000E+00 0.000000000000E+00
E31 2019 01 04 17 30 00 9.410855127499E-04-9.663381206337E-12 0.000000000000E+00
     5.700000000000E+01 1.863750000000E+02 2.412600494495E-09 3.104924357385E+00
     8.707866072655E-06 2.577598206699E-04 9.097158908844E-06 5.440636390686E+03
     4.950000000000E+05-1.676380634308E-08-2.827912158601E+00 3.539025783539E-08
     9.898923090109E-01 1.587500000000E+02-1.544240173859E+00-5.198073663490E-09
     1.857220217820E-11 5.210000000000E+02 2.034000000000E+03 0.000000000000E+00
     3.120000000000E+00 0.000000000000E+00 0.000000000000E+00 0.000000000000E+00
     4.956850000000E+05 0.000000000000E+00 0.000000000000E+00 0.000000000000E+00
E33 2019 01 04 17 30 00 8.478661184199E-04 7.105427357601E-14 0.000000000000E+00
     5.700000000000E+01-1.812812500000E+02 2.480460463992E-09 1.747972030897E+00
    -8.434057235718E-06 3.515330608934E-04 5.362555384636E-06 5.440606201172E+03
     4.950000000000E+05-1.490116119385E-08-7.449014954287E-01 2.793967723846E-08
     9.852472032493E-01 2.368437500000E+02-1.515379913245E+00-5.434154925793E-09
    -2.128660095809E-10 5.210000000000E+02 2.034000000000E+03 0.000000000000E+00
     3.120000000000E+00 4.550000000000E+02-7.916241884232E-09-8.847564458847E-09
     4.956850000000E+05 0.000000000000E+00 0.000000000000E+00 0.000000000000E+00
E36 2019 01 04 17 30 00 7.635519723408E-04-4.547473508865E-12 0.000000000000E+00
     5.700000000000E+01-2.066562500000E+02 2.523676549830E-09-4.711146477247E-01
    -9.538605809212E-06 3.241333179176E-04 6.459653377533E-06 5.440606475830E+03
     4.950000000000E+05-4.284083843231E-08-7.448745762731E-01 5.215406417847E-08
     9.852556545270E-01 2.126875000000E+02-1.650731263446E+00-5.451655654769E-09
    -2.685826161155E-10 5.210000000000E+02 2.034000000000E+03 0.000000000000E+00
     3.120000000000E+00 4.550000000000E+02 9.313225746155E-10 1.164153218269E-09
     4.956850000000E+05 0.000000000000E+00 0.000000000000E+00 0.000000000000E+00
E02 2019 01 04 17 30 00 4.196318332106E-05 1.492139745096E-12 0.000000000000E+00
     5.700000000000E+01 2.106875000000E+02 2.428672592533E-09-5.369260363474E-01
     9.665265679359E-06 2.676080912352E-04 1.005269587040E-05 5.440625432968E+03
     4.950000000000E+05 4.470348358154E-08-2.825306483527E+00 3.352761268616E-08
     9.903608685054E-01 1.388125000000E+02-2.781392206321E-01-5.236646698783E-09
     6.785996949726E-12 2.580000000000E+02 2.034000000000E+03 0.000000000000E+00
     3.120000000000E+00 0.000000000000E+00-6.053596735001E-09 0.000000000000E+00
     4.957000000000E+05 0.000000000000E+00 0.000000000000E+00 0.000000000000E+00
E07 2019 01 04 17 30 00-1.064069219865E-04-7.077005648171E-12 0.000000000000E+00
     5.700000000000E+01 1.640625000000E+01 3.866232472673E-09-4.181485883100E-01
     8.251518011093E-07 1.479828497395E-04 4.114583134651E-06 5.440603786469E+03
     4.950000000000E+05 0.000000000000E+00 1.365637162029E+00-2.421438694000E-08
     9.521951161886E-01 2.508125000000E+02 1.224927172162E-01-5.787026767179E-09
     2.835832409517E-10 2.580000000000E+02 2.034000000000E+03 0.000000000000E+00
     3.120000000000E+00 0.000000000000E+00 2.328306436539E-10 0.000000000000E+00
     4.957000000000E+05 0.000000000000E+00 0.000000000000E+00 0.000000000000E+00
E09 2019 01 04 17 30 00 6.568109907676E-03-1.134026206273E-11 0.000000000000E+00
     5.700000000000E+01 7.718750000000E+00 3.779443143263E-09 2.686798021522E+00
     4.228204488754E-07 2.564880996943E-04 4.073604941368E-06 5.440602869034E+03
     4.950000000000E+05-2.607703208923E-08 1.356986320316E+00 1.490116119385E-08
     9.581665956447E-01 2.526562500000E+02 1.591498235604E-01-5.724524163695E-09
     1.835790753768E-10 2.580000000000E+02 2.034000000000E+03 0.000000000000E+00
     3.120000000000E+00 0.000000000000E+00-3.259629011154E-09 0.000000000000E+00
     4.957000000000E+05 0.000000000000E+00 0.000000000000E+00 0.000000000000E+00
